[{"OBJECT_NAME":"STARLINK-34354","OBJECT_ID":"2025-123Z","EPOCH":"2026-03-09T17:12:26.174304","MEAN_MOTION":14.98333546,"ECCENTRICITY":0.0003151,"INCLINATION":70.0033,"RA_OF_ASC_NODE":194.3444,"ARG_OF_PERICENTER":262.0506,"MEAN_ANOMALY":98.0295,"EPHEMERIS_TYPE":0,"CLASSIFICATION_TYPE":"U","NORAD_CAT_ID":64314,"ELEMENT_SET_NO":999,"REV_AT_EPOCH":4162,"BSTAR":0.00017973123,"MEAN_MOTION_DOT":2.052e-5,"MEAN_MOTION_DDOT":0},{"OBJECT_NAME":"COSMOS 2251 DEB","OBJECT_ID":"1993-036AXM","EPOCH":"2026-03-07T07:05:54.204864","MEAN_MOTION":15.02741186,"ECCENTRICITY":0.0082386,"INCLINATION":74.0334,"RA_OF_ASC_NODE":21.5856,"ARG_OF_PERICENTER":78.8649,"MEAN_ANOMALY":282.1788,"EPHEMERIS_TYPE":0,"CLASSIFICATION_TYPE":"U","NORAD_CAT_ID":36050,"ELEMENT_SET_NO":999,"REV_AT_EPOCH":68304,"BSTAR":0.00097016,"MEAN_MOTION_DOT":0.00013949,"MEAN_MOTION_DDOT":0}]
